0 METEOSAT 2
1 12544U 81057A   13280.50889758 -.00000260  00000-0  10000-3 0  9501
2 12544 015.2412 001.7941 0028310 253.7555 105.9428 00.98726842 78124
0 METEOSAT 2
1 12544U 81057A   13281.52176326 -.00000271  00000-0  10000-3 0  9528
2 12544 015.2414 001.7836 0028354 253.9609 105.7424 00.98726824 78134
0 METEOSAT 2
1 12544U 81057A   13281.52176575 -.00000271  00000-0  10000-3 0  9513
2 12544 015.2415 001.7837 0028338 253.7929 105.9094 00.98726798 78136
0 METEOSAT 2
1 12544U 81057A   13282.53461269 -.00000276  00000-0  10000-3 0  9539
2 12544 015.2418 001.7733 0028409 253.8430 105.8545 00.98726647 78145
0 METEOSAT 2
1 12544U 81057A   13283.54746810  .00000000  00000-0  10000-3 0  9533
2 12544 015.2427 001.7627 0028289 254.8915 104.8098 00.98722211 78158
0 METEOSAT 2
1 12544U 81057A   13284.56033493 -.00000268  00000-0  10000-3 0  9551
2 12544 015.2426 001.7524 0028204 253.9346 105.7648 00.98726104 78165
0 METEOSAT 2
1 12544U 81057A   13285.57318974 -.00000254  00000-0  10000-3 0  9569
2 12544 015.2429 001.7413 0028167 253.9620 105.7342 00.98725728 78171
0 METEOSAT 2
1 12544U 81057A   13285.57318974 -.00000254  00000-0  10000-3 0  9570
2 12544 015.2429 001.7413 0028167 253.9620 105.7342 00.98725728 78171
0 METEOSAT 2
1 12544U 81057A   13285.57318974 -.00000254  00000-0  10000-3 0  9581
2 12544 015.2429 001.7413 0028167 253.9620 105.7342 00.98725728 78171
0 METEOSAT 2
1 12544U 81057A   13287.59891951 -.00000212  00000-0  10000-3 0  9591
2 12544 015.2435 001.7206 0028149 253.9817 105.7076 00.98724796 78196
0 METEOSAT 2
1 12544U 81057A   13287.59891951 -.00000212  00000-0  10000-3 0  9603
2 12544 015.2435 001.7206 0028149 253.9817 105.7076 00.98724796 78196
0 METEOSAT 2
1 12544U 81057A   13287.59891951 -.00000212  00000-0  10000-3 0  9614
2 12544 015.2435 001.7206 0028149 253.9817 105.7076 00.98724796 78196
0 METEOSAT 2
1 12544U 81057A   13289.62466344 -.00000154  00000-0  10000-3 0  9631
2 12544 015.2443 001.6994 0028243 253.9119 105.7682 00.98723816 78216
0 METEOSAT 2
1 12544U 81057A   13289.62467001 -.00000154  00000-0  10000-3 0  9621
2 12544 015.2442 001.6992 0028312 253.9162 105.7672 00.98723831 78214
0 METEOSAT 2
1 12544U 81057A   13290.63755058  .00000000  00000-0  10000-3 0  9647
2 12544 015.2450 001.6906 0028489 255.3866 104.2913 00.98719136 78226
0 METEOSAT 2
1 12544U 81057A   13290.63755324 -.00000122  00000-0  10000-3 0  9649
2 12544 015.2446 001.6892 0028204 253.8939 105.7848 00.98723338 78226
0 METEOSAT 2
1 12544U 81057A   13291.65044884 -.00000091  00000-0  10000-3 0  9650
2 12544 015.2449 001.6804 0028369 254.0353 105.6378 00.98722875 78230
0 METEOSAT 2
1 12544U 81057A   13292.66335063 -.00000061  00000-0  10000-3 0  9662
2 12544 015.2453 001.6689 0028385 254.0596 105.6159 00.98722546 78246
0 METEOSAT 2
1 12544U 81057A   13293.67625751 -.00000034  00000-0  10000-3 0  9671
2 12544 015.2456 001.6592 0028403 254.0984 105.5771 00.98722265 78252
0 METEOSAT 2
1 12544U 81057A   13293.67625962 -.00000034  00000-0  10000-3 0  9686
2 12544 015.2455 001.6595 0028552 254.2732 105.4012 00.98722267 78251
0 METEOSAT 2
1 12544U 81057A   13293.67625962 -.00000034  00000-0  10000-3 0  9697
2 12544 015.2455 001.6595 0028552 254.2732 105.4012 00.98722267 78251
